     2.100          NAVIGATION                              RINEX VERSION / TYPE
fic2rin                                 01/11/2018 00:06:36 PGM / RUN BY / DATE
                                                            END OF HEADER
25 18  1 10 18  0  0.0 -.520164612681D-03 -.613908923697D-11  .000000000000D+00
     .510000000000D+02 -.371875000000D+01  .438875423780D-08 -.609408743955D+00
    -.229105353355D-06  .696348061319D-02  .414438545704D-05  .515370005989D+04
     .324000000000D+06  .167638063431D-07 -.233988336030D+01  .119209289551D-06
     .975546770479D+00  .305531250000D+03  .804003886149D+00 -.824998650220D-08
    -.201079804352D-09  .100000000000D+01  .198300000000D+04  .000000000000D+00
     .240000000000D+01  .000000000000D+00  .558793544769D-08  .510000000000D+02
     .316806000000D+06  .400000000000D+01
26 18  1 10 18  0  0.0 -.292368698865D-03  .139834810398D-10  .000000000000D+00
     .440000000000D+02 -.425000000000D+01  .470126725522D-08 -.108880955279D+01
    -.223517417908D-06  .252770830411D-02  .407733023167D-05  .515359039116D+04
     .324000000000D+06 -.502914190292D-07 -.235937421578D+01 -.391155481339D-07
     .957181678733D+00  .299875000000D+03 -.370407332038D-01 -.835963392659D-08
    -.166792661870D-09  .100000000000D+01  .198300000000D+04  .000000000000D+00
     .240000000000D+01  .000000000000D+00  .745058059692D-08  .440000000000D+02
     .316806000000D+06  .400000000000D+01
27 18  1 10 18  0  0.0  .361788086593D-03  .216004991671D-11  .000000000000D+00
     .560000000000D+02 -.578437500000D+02  .393052086483D-08 -.293827242513D+01
    -.294111669064D-05  .529444718268D-02  .885687768459D-05  .515368136024D+04
     .324000000000D+06 -.931322574615D-08 -.129992888572D+01 -.186264514923D-07
     .976437542760D+00  .217625000000D+03  .352262838098D+00 -.779425323336D-08
     .892894335490D-11  .100000000000D+01  .198300000000D+04  .000000000000D+00
     .240000000000D+01  .000000000000D+00  .186264514923D-08  .560000000000D+02
     .316806000000D+06  .400000000000D+01
28 18  1 10 18  0  0.0  .678669661283D-03  .341060513165D-11  .000000000000D+00
     .780000000000D+02 -.371875000000D+01  .391087718945D-08 -.211721117018D+01
    -.558793544769D-08  .199026918272D-01  .382587313652D-05  .515366979027D+04
     .324000000000D+06  .366941094398D-06 -.225856607871D+01  .188127160072D-06
     .987050729619D+00  .317968750000D+03 -.153398897145D+01 -.771925010918D-08
    -.174292974288D-09  .100000000000D+01  .198300000000D+04  .000000000000D+00
     .485000000000D+01  .000000000000D+00 -.111758708954D-07  .780000000000D+02
     .316806000000D+06  .400000000000D+01
29 18  1 10 18  0  0.0  .513032544404D-03 -.534328137292D-11  .000000000000D+00
     .100000000000D+02 -.451875000000D+02  .389587656461D-08 -.160497813771D+01
    -.235810875893D-05  .427613500506D-03  .839680433273D-05  .515375358582D+04
     .324000000000D+06  .242143869400D-07 -.123621080999D+01 -.447034835815D-07
     .982875305410D+00  .230843750000D+03  .772014468633D+00 -.776746640330D-08
    -.500020827875D-10  .100000000000D+01  .198300000000D+04  .000000000000D+00
     .240000000000D+01  .000000000000D+00 -.102445483208D-07  .100000000000D+02
     .316806000000D+06  .400000000000D+01
31 18  1 10 18  0  0.0  .149546656758D-03 -.261479726760D-11  .000000000000D+00
     .100000000000D+02  .774375000000D+02  .453411743562D-08  .207056632420D+00
     .394880771637D-05  .884604617022D-02  .673532485962D-05  .515358995628D+04
     .324000000000D+06  .147148966789D-06  .292416407535D+01 -.670552253723D-07
     .964889725336D+00  .250718750000D+03 -.177539391388D+00 -.823855745470D-08
     .332156692802D-10  .100000000000D+01  .198300000000D+04  .000000000000D+00
     .240000000000D+01  .000000000000D+00 -.135041773319D-07  .100000000000D+02
     .316806000000D+06  .400000000000D+01
32 18  1 10 18  0  0.0 -.532620586455D-03 -.682121026330D-12  .000000000000D+00
     .220000000000D+02  .124375000000D+02  .460197740512D-08 -.221377275744D+01
     .702217221260D-06  .156098545995D-02  .100210309029D-04  .515362433243D+04
     .324000000000D+06  .409781932831D-07  .183848974619D+01 -.428408384323D-07
     .957004054146D+00  .183906250000D+03 -.269322241310D+01 -.794890253227D-08
    -.230366738556D-09  .100000000000D+01  .198300000000D+04  .000000000000D+00
     .240000000000D+01  .000000000000D+00  .465661287308D-09  .220000000000D+02
     .316806000000D+06  .400000000000D+01
13 18  1 10 17 59 44.0 -.952668488026D-04 -.227373675443D-12  .000000000000D+00
     .100000000000D+02  .171875000000D+02  .435125267571D-08  .180330695845D+01
     .875443220139D-06  .369976693764D-02  .989250838757D-05  .515366113472D+04
     .323984000000D+06  .335276126862D-07  .196385840675D+01 -.651925802231D-07
     .968488913428D+00  .192937500000D+03  .163810079887D+01 -.780389649218D-08
    -.188222125921D-09  .100000000000D+01  .198300000000D+04  .000000000000D+00
     .240000000000D+01  .000000000000D+00 -.111758708954D-07  .100000000000D+02
     .316956000000D+06  .400000000000D+01
28 18  1 10 17 59 44.0  .678671989590D-03  .341060513165D-11  .000000000000D+00
     .240000000000D+02 -.371875000000D+01  .391123434718D-08 -.211954492682D+01
    -.558793544769D-08  .199026904302D-01  .382587313652D-05  .515366979218D+04
     .323984000000D+06  .366941094398D-06 -.225856594997D+01  .188127160072D-06
     .987050729619D+00  .317968750000D+03 -.153398893341D+01 -.771925010918D-08
    -.174292974288D-09  .100000000000D+01  .198300000000D+04  .000000000000D+00
     .240000000000D+01  .000000000000D+00 -.111758708954D-07  .240000000000D+02
     .322956000000D+06  .400000000000D+01
 2 18  1 10 17 59 44.0  .231838785112D-03 -.102318153949D-10  .000000000000D+00
     .700000000000D+01 -.196562500000D+02  .472376819248D-08  .149300561989D+01
    -.113062560558D-05  .176199000562D-01  .835396349430D-05  .515366209030D+04
     .323984000000D+06 -.411644577980D-06 -.301310422514D+00 -.303611159325D-06
     .949126450949D+00  .213750000000D+03 -.191475247905D+01 -.828534511788D-08
     .377872882779D-09  .100000000000D+01  .198300000000D+04  .000000000000D+00
     .240000000000D+01  .000000000000D+00 -.204890966415D-07  .700000000000D+01
     .323196000000D+06  .400000000000D+01
 2 18  1 10 19 59 44.0  .231764744967D-03 -.102318153949D-10  .000000000000D+00
     .800000000000D+01 -.213125000000D+02  .451554523344D-08  .254323802293D+01
    -.114738941193D-05  .176203127485D-01  .834278762341D-05  .515366045952D+04
     .331184000000D+06  .141561031342D-06 -.301367673813D+00 -.219792127609D-06
     .949131533127D+00  .207875000000D+03 -.191479598623D+01 -.775496588260D-08
     .358229207399D-09  .100000000000D+01  .198300000000D+04  .000000000000D+00
     .240000000000D+01  .000000000000D+00 -.204890966415D-07  .800000000000D+01
     .324006000000D+06  .400000000000D+01
28 18  1 10 19 59 44.0  .678697135299D-03  .341060513165D-11  .000000000000D+00
     .260000000000D+02 -.571875000000D+01  .422767609968D-08 -.106942523724D+01
    -.745058059692D-07  .199025573675D-01  .458396971226D-05  .515366751289D+04
     .331184000000D+06 -.303611159325D-06 -.225862375279D+01  .264495611191D-06
     .987046378901D+00  .309343750000D+03 -.153392822085D+01 -.837034865862D-08
    -.185007706314D-09  .100000000000D+01  .198300000000D+04  .000000000000D+00
     .240000000000D+01  .000000000000D+00 -.111758708954D-07  .260000000000D+02
     .324006000000D+06  .400000000000D+01
 1 18  1 10 20  0  0.0 -.229077413678D-04 -.181898940355D-11  .000000000000D+00
     .800000000000D+01 -.753125000000D+01  .427624955153D-08  .213783841604D+01
    -.365078449249D-06  .722664839122D-02  .817328691483D-05  .515367562103D+04
     .331200000000D+06 -.117346644402D-06 -.243156472306D+00 -.633299350739D-07
     .970126622422D+00  .226281250000D+03  .620641375679D+00 -.791568686299D-08
     .420731810883D-09  .100000000000D+01  .198300000000D+04  .000000000000D+00
     .240000000000D+01  .000000000000D+00  .558793544769D-08  .800000000000D+01
     .324006000000D+06  .400000000000D+01
 3 18  1 10 20  0  0.0 -.121863558888D-04  .659383658785D-11  .000000000000D+00
     .900000000000D+02 -.227500000000D+02  .480234289400D-08  .112044152529D+01
    -.139884650707D-05  .117872131523D-02  .656582415104D-05  .515357569504D+04
     .331200000000D+06  .242143869400D-07  .799200874473D+00  .409781932831D-07
     .960477479559D+00  .251750000000D+03  .565430363141D+00 -.816569727693D-08
     .000000000000D+00  .100000000000D+01  .198300000000D+04  .000000000000D+00
     .240000000000D+01  .000000000000D+00  .232830643654D-08  .900000000000D+02
     .324006000000D+06  .400000000000D+01
 4 18  1 10 20  0  0.0  .315494835377D-04  .204636307899D-11  .000000000000D+00
     .760000000000D+02 -.450000000000D+01  .556630328745D-08 -.730277014992D+00
    -.219792127609D-06  .937127543148D-02  .414624810219D-05  .515366502953D+04
     .331200000000D+06  .000000000000D+00 -.231563127408D+01  .165775418282D-06
     .980346449628D+00  .307781250000D+03  .892844330756D+00 -.822462830307D-08
    -.215366113720D-09  .100000000000D+01  .198300000000D+04  .000000000000D+00
     .485000000000D+01  .630000000000D+02 -.195577740669D-07  .760000000000D+02
     .324006000000D+06  .400000000000D+01
 5 18  1 10 20  0  0.0 -.173095613718D-04  .102318153949D-11  .000000000000D+00
     .920000000000D+02 -.202500000000D+02  .508485466175D-08 -.118799074355D+01
    -.994652509689D-06  .529129069764D-02  .593438744545D-05  .515361756325D+04
     .331200000000D+06  .113621354103D-06  .779248544407D+00 -.149011611938D-07
     .947405045486D+00  .252906250000D+03  .632105350342D+00 -.832927551919D-08
     .914323799542D-10  .100000000000D+01  .198300000000D+04  .000000000000D+00
     .240000000000D+01  .000000000000D+00 -.107102096081D-07  .920000000000D+02
     .324006000000D+06  .400000000000D+01
